{"fetched_at":"2026-07-15T06:36:30.591Z","source":"https://celestrak.org/NORAD/elements/gp.php?NAME=TIGER&FORMAT=JSON","constellation":"oq-technology","records":[{"OBJECT_NAME":"TIGER-8","OBJECT_ID":"2024-043Y","EPOCH":"2026-07-14T22:33:54.855936","CLASSIFICATION_TYPE":"U","MEAN_MOTION":15.45165462,"ECCENTRICITY":0.00089175,"INCLINATION":97.5568,"RA_OF_ASC_NODE":345.6751,"ARG_OF_PERICENTER":103.5105,"MEAN_ANOMALY":256.7138,"EPHEMERIS_TYPE":0,"NORAD_CAT_ID":59120,"ELEMENT_SET_NO":999,"REV_AT_EPOCH":13207,"BSTAR":0.00011585958,"MEAN_MOTION_DOT":0.00005404,"MEAN_MOTION_DDOT":0},{"OBJECT_NAME":"TIGER-7","OBJECT_ID":"2024-043AV","EPOCH":"2026-07-14T20:18:10.140480","CLASSIFICATION_TYPE":"U","MEAN_MOTION":15.49343833,"ECCENTRICITY":0.00067855,"INCLINATION":97.5512,"RA_OF_ASC_NODE":348.0828,"ARG_OF_PERICENTER":78.0082,"MEAN_ANOMALY":282.1929,"EPHEMERIS_TYPE":0,"NORAD_CAT_ID":59141,"ELEMENT_SET_NO":999,"REV_AT_EPOCH":13225,"BSTAR":0.00012592887,"MEAN_MOTION_DOT":0.00006801,"MEAN_MOTION_DDOT":0}]}
