TIGER-8                 
1 59120U 24043Y   26195.94021824  .00005404  00000+0  11586-3 0  9999
2 59120  97.5568 345.6751 0008917 103.5105 256.7138 15.45165462132074
TIGER-7                 
1 59141U 24043AV  26195.84595070  .00006801  00000+0  12593-3 0  9991
2 59141  97.5512 348.0828 0006785  78.0082 282.1929 15.49343833132254
